NORAD_CAT_ID,OBJECT_NAME,OBJECT_TYPE,EPOCH,MEAN_MOTION,ECCENTRICITY,INCLINATION,RA_OF_ASC_NODE,ARG_OF_PERICENTER,MEAN_ANOMALY,BSTAR,MEAN_MOTION_DOT,MEAN_MOTION_DDOT,TLE_LINE0,TLE_LINE1,TLE_LINE2,SEMIMAJOR_AXIS,PERIOD,APOGEE,PERIGEE,DECAYED
53859.0,STARLINK-4790,PAYLOAD,2024-04-04 14:29:32,15.08835925,0.0001424,53.2178,209.5404,95.3849,264.7306,0.00014984,2.097e-05,0.0,0 STARLINK-4790,1 53859U 22114AT  24095.60385198  .00002097  00000-0  14984-3 0  9997,2 53859  53.2178 209.5404 0001424  95.3849 264.7306 15.08835925 86751,6917.893,95.438,540.743,538.773,0.0
53859.0,STARLINK-4790,PAYLOAD,2024-04-05 00:01:51,15.08846154,0.0001352,53.2174,207.7556,94.0497,266.065,0.00016362,2.317e-05,0.0,0 STARLINK-4790,1 53859U 22114AT  24096.00128613  .00002317  00000-0  16362-3 0  9996,2 53859  53.2174 207.7556 0001352  94.0497 266.0650 15.08846154 86270,6917.862,95.437,540.662,538.791,0.0
53859.0,STARLINK-4790,PAYLOAD,2024-04-05 14:20:19,15.08848996,0.0001371,53.2174,205.0824,97.5435,262.5713,0.00018239,2.617e-05,0.0,0 STARLINK-4790,1 53859U 22114AT  24096.59744288  .00002617  00000-0  18239-3 0  9990,2 53859  53.2174 205.0824 0001371  97.5435 262.5713 15.08848996 86907,6917.853,95.437,540.666,538.769,0.0
53859.0,STARLINK-4790,PAYLOAD,2024-04-06 14:11:06,15.08836245,0.0001427,53.2169,200.6238,105.745,254.37,5.7747e-05,6.31e-06,0.0,0 STARLINK-4790,1 53859U 22114AT  24097.59104900  .00000631  00000-0  57747-4 0  9994,2 53859  53.2169 200.6238 0001427 105.7450 254.3700 15.08836245 87058,6917.892,95.438,540.744,538.77,0.0
53859.0,STARLINK-4790,PAYLOAD,2024-04-06 17:21:52,15.08841133,0.0001437,53.217,200.0261,94.0287,266.087,8.5799e-05,1.078e-05,0.0,0 STARLINK-4790,1 53859U 22114AT  24097.72352631  .00001078  00000-0  85799-4 0  9999,2 53859  53.2170 200.0261 0001437  94.0287 266.0870 15.08841133 86531,6917.877,95.437,540.736,538.748,0.0
53859.0,STARLINK-4790,PAYLOAD,2024-04-07 06:04:58,15.08835174,0.0001433,53.217,197.6468,87.3169,272.7987,-3.0919e-05,-7.8e-06,0.0,0 STARLINK-4790,1 53859U 22114AT  24098.25345032 -.00000780  00000-0 -30919-4 0  9990,2 53859  53.2170 197.6468 0001433  87.3169 272.7987 15.08835174 86611,6917.895,95.438,540.751,538.769,0.0
53859.0,STARLINK-4790,PAYLOAD,2024-04-08 12:17:17,15.08838814,0.0001293,53.2145,191.9962,84.8028,275.3112,0.00015301,2.148e-05,0.0,0 STARLINK-4790,1 53859U 22114AT  24099.51201364  .00002148  00000-0  15301-3 0  9994,2 53859  53.2145 191.9962 0001293  84.8028 275.3112 15.08838814 86803,6917.884,95.438,540.643,538.855,0.0
53859.0,STARLINK-4790,PAYLOAD,2024-04-08 23:24:59,15.08848668,0.0001696,53.2166,189.9164,80.9442,279.1742,0.00027874,4.152e-05,0.0,0 STARLINK-4790,1 53859U 22114AT  24099.97568972  .00004152  00000-0  27874-3 0  9990,2 53859  53.2166 189.9164 0001696  80.9442 279.1742 15.08848668 87418,6917.854,95.437,540.892,538.546,0.0
53859.0,STARLINK-4790,PAYLOAD,2024-04-09 12:08:05,15.08834995,0.0001347,53.2142,187.5358,84.6728,275.4417,0.0001206,1.632e-05,0.0,0 STARLINK-4790,1 53859U 22114AT  24100.50561614  .00001632  00000-0  12060-3 0  9999,2 53859  53.2142 187.5358 0001347  84.6728 275.4417 15.08834995 87496,6917.896,95.438,540.693,538.829,0.0
53859.0,STARLINK-4790,PAYLOAD,2024-04-09 23:15:46,15.08849096,0.0001781,53.2138,185.4535,87.2456,272.874,0.00013789,1.908e-05,0.0,0 STARLINK-4790,1 53859U 22114AT  24100.96928989  .00001908  00000-0  13789-3 0  9996,2 53859  53.2138 185.4535 0001781  87.2456 272.8740 15.08849096 87021,6917.853,95.437,540.95,538.486,0.0
53859.0,STARLINK-4790,PAYLOAD,2024-04-10 11:58:51,15.08846472,0.0001843,53.2151,183.0744,91.7997,268.3206,9.487e-05,1.222e-05,0.0,0 STARLINK-4790,1 53859U 22114AT  24101.49921030  .00001222  00000-0  94870-4 0  9995,2 53859  53.2151 183.0744 0001843  91.7997 268.3206 15.08846472 87641,6917.861,95.437,541.001,538.451,0.0
53859.0,STARLINK-4790,PAYLOAD,2024-04-10 15:09:38,15.0884613,0.0001775,53.2166,182.4793,95.7385,264.381,5.8806e-05,6.48e-06,0.0,0 STARLINK-4790,1 53859U 22114AT  24101.63168998  .00000648  00000-0  58806-4 0  9997,2 53859  53.2166 182.4793 0001775  95.7385 264.3810 15.08846130 87124,6917.862,95.437,540.955,538.499,0.0
53859.0,STARLINK-4790,PAYLOAD,2024-04-11 05:28:06,15.08835009,0.0001792,53.2165,179.8027,99.9159,260.2036,0.00031744,4.767e-05,0.0,0 STARLINK-4790,1 53859U 22114AT  24102.22785503  .00004767  00000-0  31744-3 0  9997,2 53859  53.2165 179.8027 0001792  99.9159 260.2036 15.08835009 87215,6917.896,95.438,541.0,538.521,0.0
53859.0,STARLINK-4790,PAYLOAD,2024-04-11 11:49:39,15.08837019,0.0001466,53.2165,178.6136,96.4886,263.6273,7.3999e-05,8.9e-06,0.0,0 STARLINK-4790,1 53859U 22114AT  24102.49281346  .00000890  00000-0  73999-4 0  9994,2 53859  53.2165 178.6136 0001466  96.4886 263.6273 15.08837019 87796,6917.89,95.438,540.769,538.74,0.0
53859.0,STARLINK-4790,PAYLOAD,2024-04-12 11:40:26,15.08840265,0.0001365,53.217,174.1517,96.1467,263.9681,6.1075e-05,6.84e-06,0.0,0 STARLINK-4790,1 53859U 22114AT  24103.48641305  .00000684  00000-0  61075-4 0  9992,2 53859  53.2170 174.1517 0001365  96.1467 263.9681 15.08840265 87407,6917.88,95.438,540.689,538.8,0.0
53859.0,STARLINK-4790,PAYLOAD,2024-04-13 11:31:13,15.08831962,0.0001319,53.2169,169.692,95.7357,264.3785,6.0283e-05,6.71e-06,0.0,0 STARLINK-4790,1 53859U 22114AT  24104.48002031  .00000671  00000-0  60283-4 0  9996,2 53859  53.2169 169.6920 0001319  95.7357 264.3785 15.08831962 87554,6917.905,95.438,540.682,538.857,0.0
53859.0,STARLINK-4790,PAYLOAD,2024-04-14 11:22:00,15.08843709,0.0001305,53.2168,165.2316,96.185,263.9291,0.00010963,1.457e-05,0.0,0 STARLINK-4790,1 53859U 22114AT  24105.47361422  .00001457  00000-0  10963-3 0  9990,2 53859  53.2168 165.2316 0001305  96.1850 263.9291 15.08843709 87708,6917.869,95.437,540.637,538.831,0.0
53859.0,STARLINK-4790,PAYLOAD,2024-04-15 12:48:10,15.0884309,0.0001428,53.2159,160.4742,95.3563,264.7592,0.00017161,2.445e-05,0.0,0 STARLINK-4790,1 53859U 22114AT  24106.53345487  .00002445  00000-0  17161-3 0  9996,2 53859  53.2159 160.4742 0001428  95.3563 264.7592 15.08843090 87869,6917.871,95.437,540.724,538.748,0.0
53859.0,STARLINK-4790,PAYLOAD,2024-04-15 20:45:06,15.08847711,0.0001511,53.2161,158.9899,89.2707,270.8458,0.00017358,2.476e-05,0.0,0 STARLINK-4790,1 53859U 22114AT  24106.86465278  .00002476  00000-0  17358-3 0  9995,2 53859  53.2161 158.9899 0001511  89.2707 270.8458 15.08847711 88451,6917.857,95.437,540.767,538.677,0.0
53859.0,STARLINK-4790,PAYLOAD,2024-04-16 11:03:34,15.0884313,0.0001607,53.2174,156.3116,90.1181,269.9995,4.107e-05,3.66e-06,0.0,0 STARLINK-4790,1 53859U 22114AT  24107.46081817  .00000366  00000-0  41070-4 0  9990,2 53859  53.2174 156.3116 0001607  90.1181 269.9995 15.08843130 88009,6917.871,95.437,540.848,538.624,0.0
53859.0,STARLINK-4790,PAYLOAD,2024-04-17 09:18:58,15.08837741,0.0001651,53.2162,152.1487,98.0039,262.1141,2.6036e-05,1.26e-06,0.0,0 STARLINK-4790,1 53859U 22114AT  24108.38817983  .00000126  00000-0  26036-4 0  9992,2 53859  53.2162 152.1487 0001651  98.0039 262.1141 15.08837741 88682,6917.887,95.438,540.894,538.61,0.0
53859.0,STARLINK-4790,PAYLOAD,2024-04-17 20:26:40,15.08838378,0.0001605,53.2169,150.0641,99.8904,260.227,6.0493e-06,-1.92e-06,0.0,0 STARLINK-4790,1 53859U 22114AT  24108.85186117 -.00000192  00000-0  60493-5 0  9992,2 53859  53.2169 150.0641 0001605  99.8904 260.2270 15.08838378 88215,6917.885,95.438,540.861,538.64,0.0
53859.0,STARLINK-4790,PAYLOAD,2024-04-18 09:09:46,15.08843256,0.000168,53.2174,147.6874,94.8594,265.259,-4.8211e-05,-1.055e-05,0.0,0 STARLINK-4790,1 53859U 22114AT  24109.38178255 -.00001055  00000-0 -48211-4 0  9998,2 53859  53.2174 147.6874 0001680  94.8594 265.2590 15.08843256 88833,6917.87,95.437,540.898,538.573,0.0
53859.0,STARLINK-4790,PAYLOAD,2024-04-19 02:39:00,15.08835977,0.000177,53.2174,144.414,103.1882,256.9307,0.00012448,1.693e-05,0.0,0 STARLINK-4790,1 53859U 22114AT  24110.11042145  .00001693  00000-0  12448-3 0  9997,2 53859  53.2174 144.4140 0001770 103.1882 256.9307 15.08835977 88405,6917.893,95.438,540.982,538.533,0.0
53859.0,STARLINK-4790,PAYLOAD,2024-04-19 09:00:32,15.08870781,0.0001512,53.2168,143.225,103.4371,256.679,-0.00041694,-6.923e-05,0.0,0 STARLINK-4790,1 53859U 22114AT  24110.37537440 -.00006923  00000-0 -41694-3 0  9990,2 53859  53.2168 143.2250 0001512 103.4371 256.6790 15.08870781 88446,6917.786,95.436,540.697,538.605,0.0
53859.0,STARLINK-4790,PAYLOAD,2024-04-20 02:29:47,15.0882431,0.000163,53.2161,139.9549,94.084,266.0339,0.00032273,4.85e-05,0.0,0 STARLINK-4790,1 53859U 22114AT  24111.10402776  .00004850  00000-0  32273-3 0  9993,2 53859  53.2161 139.9549 0001630  94.0840 266.0339 15.08824310 88552,6917.928,95.439,540.921,538.666,0.0
53859.0,STARLINK-4790,PAYLOAD,2024-04-20 08:51:20,15.08840349,0.0001555,53.2156,138.7617,95.5792,264.5378,7.0429e-05,8.33e-06,0.0,0 STARLINK-4790,1 53859U 22114AT  24111.36898398  .00000833  00000-0  70429-4 0  9993,2 53859  53.2156 138.7617 0001555  95.5792 264.5378 15.08840349 88597,6917.879,95.438,540.82,538.669,0.0
53859.0,STARLINK-4790,PAYLOAD,2024-04-21 02:20:35,15.08829867,0.0001711,53.2164,135.4951,103.1432,256.9752,2.9265e-05,1.78e-06,0.0,0 STARLINK-4790,1 53859U 22114AT  24112.09763373  .00000178  00000-0  29265-4 0  9992,2 53859  53.2164 135.4951 0001711 103.1432 256.9752 15.08829867 88708,6917.911,95.438,540.96,538.593,0.0
53859.0,STARLINK-4790,PAYLOAD,2024-04-21 10:17:32,15.0882221,0.00015,53.2161,134.0067,102.3374,257.7786,-4.0263e-05,-9.28e-06,0.0,0 STARLINK-4790,1 53859U 22114AT  24112.42884473 -.00000928  00000-0 -40263-4 0  9990,2 53859  53.2161 134.0067 0001500 102.3374 257.7786 15.08822210 89296,6917.935,95.439,540.837,538.762,0.0
53859.0,STARLINK-4790,PAYLOAD,2024-04-22 10:08:18,15.0884078,0.0001705,53.2174,129.5488,81.7726,278.346,0.00011975,1.618e-05,0.0,0 STARLINK-4790,1 53859U 22114AT  24113.42243428  .00001618  00000-0  11975-3 0  9992,2 53859  53.2174 129.5488 0001705  81.7726 278.3460 15.08840780 88901,6917.878,95.438,540.923,538.564,0.0
